{
  "norad_id": 58523,
  "name": "STARLINK-30932",
  "history": [
    {
      "epoch": "2026-03-28T18:40:15.455424Z",
      "apogee_km": 483.6255979960006,
      "perigee_km": 482.4856794510024,
      "latitude_deg": -3.2254711601617034e-05,
      "longitude_deg": -110.88315694731259,
      "height_km": 482.74802088948894,
      "semi_major_axis_km": 6861.192638723501,
      "eccentricity": 8.307e-05,
      "inclination_deg": 43.0026,
      "raan_deg": 355.3748,
      "arg_perigee_deg": 278.4876,
      "mean_anomaly_deg": 81.5881,
      "mean_motion_rev_day": 15.27577815
    }
  ]
}