{"fetched_at":"2026-03-30T09:12:31Z","count":15922,"tles":[{"name":"STARLINK-30932","line1":"1 58523U 23191R   26087.77795666  .00001714  00000+0  71777-4 0  9990","line2":"2 58523  43.0026 355.3748 0000830 278.4876  81.5881 15.27577815128345","category":"Starlink"}]}